GOMX-1                  
1 39430U 13066Q   26198.62241387  .00000608  00000+0  98269-4 0  9995
2 39430  97.6461  37.1641 0128023 340.3926  19.2381 14.69545680674389
CUBEBUG-2 (LO-74)       
1 39440U 13066AA  26198.60635634  .00001948  00000+0  18322-3 0  9995
2 39440  97.8919 147.7205 0055601 287.2018  72.3120 14.93976531681532
NEE-02 KRYSAOR          
1 39441U 13066AB  26198.29430495  .00001069  00000+0  12208-3 0  9990
2 39441  97.8897 137.2978 0065226 332.3487  27.4265 14.86744048680678
FUNCUBE-1 (AO-73)       
1 39444U 13066AE  26198.34715985  .00004168  00000+0  25766-3 0  9995
2 39444  97.8294 170.4330 0037942 100.7078 259.8426 15.09834376684214
UWE-3                   
1 39446U 13066AG  26198.35863992  .00002054  00000+0  17893-3 0  9994
2 39446  97.8718 154.6426 0047589 217.0557 142.7376 14.97207851682095
SMDC ONE 2.4            
1 39469U 13072H   26198.22558509  .00009384  00000+0  34857-3 0  9999
2 39469 120.4891 108.1141 0148166  50.6248 310.7847 15.18851137122392
COSMOS 2488 (RODNIK-S 7)
1 39483U 13076A   26198.70670562 -.00000008  00000+0 -12861-3 0  9993
2 39483  82.4862 149.6826 0020512  32.3351 327.8981 12.42906112569682
COSMOS 2489 (RODNIK-S 8)
1 39484U 13076B   26198.68254921  .00000052  00000+0  30123-3 0  9996
2 39484  82.4897 151.0864 0022336  32.0641 328.1792 12.42880181569732
COSMOS 2490 (RODNIK-S 9)
1 39485U 13076C   26198.73497605  .00000044  00000+0  24314-3 0  9997
2 39485  82.4845 149.1079 0022744  46.8662 313.4314 12.42879114569675
KAZEOSAT 1              
1 39731U 14024A   26198.69007836  .00000105  00000+0  44979-4 0  9991
2 39731  98.3196 270.3763 0001215  82.8781 277.2547 14.42038061642951
COSMOS 2496 (RODNIK-S *)
1 39761U 14028A   26198.69245275  .00000176  00000+0  11964-2 0  9993
2 39761  82.4450  89.6255 0020746  15.6530 344.5186 12.42880035551303
COSMOS 2497 (RODNIK-S *)
1 39762U 14028B   26198.66734510  .00000232  00000+0  16031-2 0  9999
2 39762  82.4500  91.3429 0021232  10.7600 349.3929 12.42895991551303
COSMOS 2498 (RODNIK-S *)
1 39763U 14028C   26198.72333189  .00000112  00000+0  73934-3 0  9997
2 39763  82.4458  89.7814 0021941  10.1445 350.0073 12.42981294551348
HODOYOSHI-4             
1 40011U 14033B   26198.76213451  .00000144  00000+0  21203-4 0  9992
2 40011  97.5457  22.1106 0022836 200.7708 159.2583 14.88191706653352
UNISAT-6                
1 40012U 14033C   26198.25284144  .00001050  00000+0  11750-3 0  9996
2 40012  97.7911 350.4435 0044023 330.8621  29.0140 14.88371050650636
DEIMOS-2                
1 40013U 14033D   26198.72901007  .00000732  00000+0  74184-4 0  9990
2 40013  97.5781  72.1393 0001209 110.4879 249.6471 14.93798461642281
BUGSAT-1 (TITA)         
1 40014U 14033E   26198.73333858  .00003420  00000+0  18071-3 0  9994
2 40014  98.0434 293.0756 0028912  77.4709 282.9754 15.15898471660465
SAUDISAT 4              
1 40016U 14033G   26198.34882686  .00000220  00000+0  35798-4 0  9992
2 40016  97.7621 343.4471 0044070 336.9897  22.9340 14.79576785650539
APRIZESAT 9             
1 40018U 14033J   26198.34334027  .00000296  00000+0  50835-4 0  9997
2 40018  97.9097 330.8108 0067487 103.1795 257.6955 14.74254170648009
BRITE-CA1 (TORONTO)     
1 40020U 14033L   26197.93307810  .00000506  00000+0  83590-4 0  9992
2 40020  97.9774 326.3188 0078575 180.6925 179.4187 14.72724463646592
DUCHIFAT-1              
1 40021U 14033M   26197.69874411  .00099153  00000+0  77546-3 0  9991
2 40021  98.0414 261.1627 0002786 236.8489 123.2505 15.71313651660376
NANOSATC-BR1            
1 40024U 14033Q   26198.05591393  .00010197  00000+0  32893-3 0  9997
2 40024  98.0704 233.1102 0005253  91.9307 268.2534 15.32365382658553
